STARLINK-32163          
1 60262U 24131H   26068.25824518  .00006177  00000+0  22065-3 0  9992
2 60262  53.1598  54.3553 0001361  94.2219 265.8937 15.30181151 91659
TOMORROW-S1             
1 60479U 24149M   26068.72470524  .00008620  00000+0  28856-3 0  9996
2 60479  97.3791 149.6044 0001819 207.2040 152.9106 15.31198362 86867
